{
  "norad_id": 66557,
  "name": "STARLINK-35699",
  "history": [
    {
      "epoch": "2026-03-28T17:01:19.152480Z",
      "apogee_km": 483.69875806072196,
      "perigee_km": 482.07955588767527,
      "latitude_deg": 3.5568343874699985e-05,
      "longitude_deg": 158.62233192510914,
      "height_km": 482.6304320029792,
      "semi_major_axis_km": 6861.026156974198,
      "eccentricity": 0.000118,
      "inclination_deg": 42.9978,
      "raan_deg": 240.0779,
      "arg_perigee_deg": 272.4771,
      "mean_anomaly_deg": 87.5946,
      "mean_motion_rev_day": 15.27633415
    },
    {
      "epoch": "2026-03-30T01:58:35.948928Z",
      "apogee_km": 483.80708762958693,
      "perigee_km": 482.2110478313116,
      "latitude_deg": 7.724917180202952e-06,
      "longitude_deg": 15.19361749042555,
      "height_km": 482.85889295406935,
      "semi_major_axis_km": 6861.146067730449,
      "eccentricity": 0.00011631,
      "inclination_deg": 42.9993,
      "raan_deg": 232.3226,
      "arg_perigee_deg": 264.7213,
      "mean_anomaly_deg": 95.3506,
      "mean_motion_rev_day": 15.27593368
    },
    {
      "epoch": "2026-03-30T09:49:23.012832Z",
      "apogee_km": 483.06932565003626,
      "perigee_km": 482.8958765465195,
      "latitude_deg": -2.365531079598199e-05,
      "longitude_deg": -104.66825566975632,
      "height_km": 482.8360530212488,
      "semi_major_axis_km": 6861.119601098278,
      "eccentricity": 1.264e-05,
      "inclination_deg": 42.9975,
      "raan_deg": 230.4791,
      "arg_perigee_deg": 205.4985,
      "mean_anomaly_deg": 154.586,
      "mean_motion_rev_day": 15.27602207
    },
    {
      "epoch": "2026-03-30T19:14:18.949344Z",
      "apogee_km": 483.8978642171005,
      "perigee_km": 482.0188846378587,
      "latitude_deg": -1.8860414460534065e-05,
      "longitude_deg": 111.4951986969906,
      "height_km": 482.5642224761287,
      "semi_major_axis_km": 6861.095374427479,
      "eccentricity": 0.00013693,
      "inclination_deg": 42.9998,
      "raan_deg": 228.2623,
      "arg_perigee_deg": 280.4753,
      "mean_anomaly_deg": 79.5944,
      "mean_motion_rev_day": 15.27610298
    },
    {
      "epoch": "2026-03-31T15:38:20.520960Z",
      "apogee_km": 483.6835191194805,
      "perigee_km": 482.2495484809169,
      "latitude_deg": -6.530922130139763e-05,
      "longitude_deg": 159.8501857459796,
      "height_km": 482.77170475866245,
      "semi_major_axis_km": 6861.103533800198,
      "eccentricity": 0.0001045,
      "inclination_deg": 42.9995,
      "raan_deg": 223.4617,
      "arg_perigee_deg": 267.6957,
      "mean_anomaly_deg": 92.3774,
      "mean_motion_rev_day": 15.27607573
    },
    {
      "epoch": "2026-04-01T15:10:41.809440Z",
      "apogee_km": 483.84286782814706,
      "perigee_km": 482.3114448284541,
      "latitude_deg": -4.534481666185943e-06,
      "longitude_deg": 160.2548273136101,
      "height_km": 482.550520962153,
      "semi_major_axis_km": 6861.2141563283,
      "eccentricity": 0.0001116,
      "inclination_deg": 42.999,
      "raan_deg": 217.9217,
      "arg_perigee_deg": 293.3062,
      "mean_anomaly_deg": 66.7672,
      "mean_motion_rev_day": 15.27570629
    },
    {
      "epoch": "2026-04-02T16:17:11.429664Z",
      "apogee_km": 483.66478751430714,
      "perigee_km": 482.26786687689037,
      "latitude_deg": -5.282514959989092e-05,
      "longitude_deg": 136.6914008610622,
      "height_km": 482.4607989935047,
      "semi_major_axis_km": 6861.1033271955985,
      "eccentricity": 0.0001018,
      "inclination_deg": 42.9981,
      "raan_deg": 212.0129,
      "arg_perigee_deg": 293.7819,
      "mean_anomaly_deg": 66.2925,
      "mean_motion_rev_day": 15.27607642
    },
    {
      "epoch": "2026-04-02T16:17:11.430528Z",
      "apogee_km": 483.6649933474073,
      "perigee_km": 482.2676610437902,
      "latitude_deg": 1.7940601925711735e-05,
      "longitude_deg": 136.69147272384308,
      "height_km": 482.46070710374994,
      "semi_major_axis_km": 6861.1033271955985,
      "eccentricity": 0.00010183,
      "inclination_deg": 42.9981,
      "raan_deg": 212.0129,
      "arg_perigee_deg": 293.782,
      "mean_anomaly_deg": 66.2925,
      "mean_motion_rev_day": 15.27607642
    },
    {
      "epoch": "2026-04-03T00:07:58.026144Z",
      "apogee_km": 483.3898538643962,
      "perigee_km": 482.36646484322773,
      "latitude_deg": 1.045283876107414e-05,
      "longitude_deg": 16.829681433948146,
      "height_km": 482.2817310713604,
      "semi_major_axis_km": 6861.015159353812,
      "eccentricity": 7.458e-05,
      "inclination_deg": 42.9978,
      "raan_deg": 210.1675,
      "arg_perigee_deg": 316.6582,
      "mean_anomaly_deg": 43.4211,
      "mean_motion_rev_day": 15.27637088
    },
    {
      "epoch": "2026-04-04T16:56:01.904640Z",
      "apogee_km": 485.58540599035314,
      "perigee_km": 480.46834997015685,
      "latitude_deg": -3.6877042067596027e-07,
      "longitude_deg": 113.53916804124887,
      "height_km": 482.51483433166726,
      "semi_major_axis_km": 6861.163877980255,
      "eccentricity": 0.0003729,
      "inclination_deg": 43.0004,
      "raan_deg": 200.5688,
      "arg_perigee_deg": 276.5167,
      "mean_anomaly_deg": 83.526,
      "mean_motion_rev_day": 15.2758742
    },
    {
      "epoch": "2026-04-05T13:20:06.578016Z",
      "apogee_km": 484.3581827115149,
      "perigee_km": 481.9436954857456,
      "latitude_deg": -1.8342614245053694e-05,
      "longitude_deg": 161.88032365431664,
      "height_km": 482.6512821491266,
      "semi_major_axis_km": 6861.28793909863,
      "eccentricity": 0.00017595,
      "inclination_deg": 42.9998,
      "raan_deg": 195.7673,
      "arg_perigee_deg": 283.2467,
      "mean_anomaly_deg": 76.8188,
      "mean_motion_rev_day": 15.27545989
    }
  ]
}